{
  "type": "FeatureCollection",
  "features": [
    {
      "type": "Feature",
      "properties": {
        "layer_type": "oil_spill_detection",
        "spill_id": "SAR-00005",
        "area_sq_km": 0.0077,
        "area_sq_m": 7714.1,
        "perimeter_km": 0.4113,
        "centroid_lat": 55.06152,
        "centroid_lon": 5.83623,
        "confidence": 0.9412
      },
      "geometry": {
        "type": "Polygon",
        "coordinates": [
          [
            [
              5.835866535099452,
              55.06204504621344
            ],
            [
              5.835866535099452,
              55.06195521468503
            ],
            [
              5.835686872042628,
              55.06195521468503
            ],
            [
              5.835686872042628,
              55.061865383156615
            ],
            [
              5.835597040514216,
              55.061865383156615
            ],
            [
              5.835597040514216,
              55.061416225514556
            ],
            [
              5.835686872042628,
              55.061416225514556
            ],
            [
              5.835686872042628,
              55.06123656245774
            ],
            [
              5.83577670357104,
              55.06123656245774
            ],
            [
              5.83577670357104,
              55.06114673092932
            ],
            [
              5.835866535099452,
              55.06114673092932
            ],
            [
              5.835866535099452,
              55.06105689940091
            ],
            [
              5.836136029684688,
              55.06105689940091
            ],
            [
              5.836136029684688,
              55.0609670678725
            ],
            [
              5.836495355798336,
              55.0609670678725
            ],
            [
              5.836495355798336,
              55.06105689940091
            ],
            [
              5.83667501885516,
              55.06105689940091
            ],
            [
              5.83667501885516,
              55.06114673092932
            ],
            [
              5.836764850383571,
              55.06114673092932
            ],
            [
              5.836764850383571,
              55.06123656245774
            ],
            [
              5.8368546819119835,
              55.06123656245774
            ],
            [
              5.8368546819119835,
              55.06132639398614
            ],
            [
              5.836944513440395,
              55.06132639398614
            ],
            [
              5.836944513440395,
              55.061416225514556
            ],
            [
              5.8368546819119835,
              55.061416225514556
            ],
            [
              5.8368546819119835,
              55.06159588857138
            ],
            [
              5.836764850383571,
              55.06159588857138
            ],
            [
              5.836764850383571,
              55.06177555162821
            ],
            [
              5.83667501885516,
              55.06177555162821
            ],
            [
              5.83667501885516,
              55.06195521468503
            ],
            [
              5.836495355798336,
              55.06195521468503
            ],
            [
              5.836495355798336,
              55.06204504621344
            ],
            [
              5.835866535099452,
              55.06204504621344
            ]
          ]
        ]
      }
    },
    {
      "type": "Feature",
      "properties": {
        "layer_type": "spill_centroid",
        "title": "Spill Centroid",
        "spill_id": "SAR-00005",
        "latitude": 55.06152,
        "longitude": 5.83623
      },
      "geometry": {
        "type": "Point",
        "coordinates": [
          5.83623,
          55.06152
        ]
      }
    },
    {
      "type": "Feature",
      "properties": {
        "layer_type": "scene_bounding_box",
        "file": "00005.tif"
      },
      "geometry": {
        "type": "Polygon",
        "coordinates": [
          [
            [
              5.679829170247891,
              54.937448716306065
            ],
            [
              5.863804140435569,
              54.937448716306065
            ],
            [
              5.863804140435569,
              55.12142368649374
            ],
            [
              5.679829170247891,
              55.12142368649374
            ],
            [
              5.679829170247891,
              54.937448716306065
            ]
          ]
        ]
      }
    }
  ]
}